{
  "type": "FeatureCollection",
  "features": [
    {
      "type": "Feature",
      "properties": {
        "norad_id": 30884,
        "name": "FENGYUN 1C DEB",
        "group": "fengyun-1c-debris",
        "lat": -34.94482942242712,
        "lon": -3.432051432076432,
        "alt_km": 611.0667692753714,
        "timestamp": "2025-12-21T14:40:48.195895+00:00",
        "meta_object_name": "FENGYUN 1C DEB",
        "meta_object_id": "1999-025AXW",
        "meta_epoch": "2025-12-20T17:39:17.437536",
        "meta_mean_motion": 14.73665998,
        "meta_eccentricity": 0.00660852,
        "meta_inclination": 98.891,
        "meta_ra_of_asc_node": 349.3286,
        "meta_arg_of_pericenter": 310.7376,
        "meta_mean_anomaly": 48.8102,
        "meta_ephemeris_type": 0,
        "meta_classification_type": "U",
        "meta_norad_cat_id": 30884,
        "meta_element_set_no": 999,
        "meta_rev_at_epoch": 98779,
        "meta_bstar": 0.0012297014,
        "meta_mean_motion_dot": 8.249e-05,
        "meta_mean_motion_ddot": 0,
        "tle_line1": "1 30884U 99025AXW 25354.73561849  .00008249  00000+0  12297-2 0  9995",
        "tle_line2": "2 30884  98.8910 349.3286 0066085 310.7376  48.8102 14.73665998987798"
      },
      "geometry": {
        "type": "Point",
        "coordinates": [
          -3.432051432076432,
          -34.94482942242712
        ]
      }
    },
    {
      "type": "Feature",
      "properties": {
        "norad_id": 30885,
        "name": "FENGYUN 1C DEB",
        "group": "fengyun-1c-debris",
        "lat": -39.62725134535885,
        "lon": -155.6747247529313,
        "alt_km": 756.4237023058586,
        "timestamp": "2025-12-21T14:40:48.195905+00:00",
        "meta_object_name": "FENGYUN 1C DEB",
        "meta_object_id": "1999-025AXX",
        "meta_epoch": "2025-12-20T19:17:06.155808",
        "meta_mean_motion": 14.49561275,
        "meta_eccentricity": 0.0053334,
        "meta_inclination": 99.0263,
        "meta_ra_of_asc_node": 195.897,
        "meta_arg_of_pericenter": 194.8461,
        "meta_mean_anomaly": 229.8062,
        "meta_ephemeris_type": 0,
        "meta_classification_type": "U",
        "meta_norad_cat_id": 30885,
        "meta_element_set_no": 999,
        "meta_rev_at_epoch": 97094,
        "meta_bstar": 0.0014666244,
        "meta_mean_motion_dot": 5.682e-05,
        "meta_mean_motion_ddot": 0,
        "tle_line1": "1 30885U 99025AXX 25354.80354347  .00005682  00000+0  14666-2 0  9997",
        "tle_line2": "2 30885  99.0263 195.8970 0053334 194.8461 229.8062 14.49561275970947"
      },
      "geometry": {
        "type": "Point",
        "coordinates": [
          -155.6747247529313,
          -39.62725134535885
        ]
      }
    },
    {
      "type": "Feature",
      "properties": {
        "norad_id": 30886,
        "name": "FENGYUN 1C DEB",
        "group": "fengyun-1c-debris",
        "lat": 76.94050892863196,
        "lon": -155.39236241382335,
        "alt_km": 799.7398539875394,
        "timestamp": "2025-12-21T14:40:48.195917+00:00",
        "meta_object_name": "FENGYUN 1C DEB",
        "meta_object_id": "1999-025AXY",
        "meta_epoch": "2025-12-19T09:59:08.060064",
        "meta_mean_motion": 14.22831086,
        "meta_eccentricity": 0.0036443,
        "meta_inclination": 99.2096,
        "meta_ra_of_asc_node": 246.6943,
        "meta_arg_of_pericenter": 16.2171,
        "meta_mean_anomaly": 344.0163,
        "meta_ephemeris_type": 0,
        "meta_classification_type": "U",
        "meta_norad_cat_id": 30886,
        "meta_element_set_no": 999,
        "meta_rev_at_epoch": 96491,
        "meta_bstar": 0.0013231,
        "meta_mean_motion_dot": 2.943e-05,
        "meta_mean_motion_ddot": 0,
        "tle_line1": "1 30886U 99025AXY 25353.41606551  .00002943  00000+0  13231-2 0  9995",
        "tle_line2": "2 30886  99.2096 246.6943 0036443  16.2171 344.0163 14.22831086964919"
      },
      "geometry": {
        "type": "Point",
        "coordinates": [
          -155.39236241382335,
          76.94050892863196
        ]
      }
    },
    {
      "type": "Feature",
      "properties": {
        "norad_id": 30887,
        "name": "FENGYUN 1C DEB",
        "group": "fengyun-1c-debris",
        "lat": 31.907794716959472,
        "lon": 46.10027779507413,
        "alt_km": 862.4272224048373,
        "timestamp": "2025-12-21T14:40:48.195929+00:00",
        "meta_object_name": "FENGYUN 1C DEB",
        "meta_object_id": "1999-025AXZ",
        "meta_epoch": "2025-12-21T02:53:37.165056",
        "meta_mean_motion": 14.4486749,
        "meta_eccentricity": 0.02636057,
        "meta_inclination": 98.3679,
        "meta_ra_of_asc_node": 50.8743,
        "meta_arg_of_pericenter": 262.2738,
        "meta_mean_anomaly": 94.8451,
        "meta_ephemeris_type": 0,
        "meta_classification_type": "U",
        "meta_norad_cat_id": 30887,
        "meta_element_set_no": 999,
        "meta_rev_at_epoch": 98249,
        "meta_bstar": 0.00045663323,
        "meta_mean_motion_dot": 2.378e-05,
        "meta_mean_motion_ddot": 0,
        "tle_line1": "1 30887U 99025AXZ 25355.12056904  .00002378  00000+0  45663-3 0  9994",
        "tle_line2": "2 30887  98.3679  50.8743 0263605 262.2738  94.8451 14.44867490982499"
      },
      "geometry": {
        "type": "Point",
        "coordinates": [
          46.10027779507413,
          31.907794716959472
        ]
      }
    },
    {
      "type": "Feature",
      "properties": {
        "norad_id": 30888,
        "name": "FENGYUN 1C DEB",
        "group": "fengyun-1c-debris",
        "lat": -23.957463879024747,
        "lon": -19.498306120274854,
        "alt_km": 639.7144194967377,
        "timestamp": "2025-12-21T14:40:48.195939+00:00",
        "meta_object_name": "FENGYUN 1C DEB",
        "meta_object_id": "1999-025AYA",
        "meta_epoch": "2025-12-21T05:08:45.373920",
        "meta_mean_motion": 14.9404637,
        "meta_eccentricity": 0.00835811,
        "meta_inclination": 99.4828,
        "meta_ra_of_asc_node": 335.7635,
        "meta_arg_of_pericenter": 124.4493,
        "meta_mean_anomaly": 236.4655,
        "meta_ephemeris_type": 0,
        "meta_classification_type": "U",
        "meta_norad_cat_id": 30888,
        "meta_element_set_no": 999,
        "meta_rev_at_epoch": 43,
        "meta_bstar": 0.00061003798,
        "meta_mean_motion_dot": 6.895e-05,
        "meta_mean_motion_ddot": 0,
        "tle_line1": "1 30888U 99025AYA 25355.21441405  .00006895  00000+0  61004-3 0  9994",
        "tle_line2": "2 30888  99.4828 335.7635 0083581 124.4493 236.4655 14.94046370   439"
      },
      "geometry": {
        "type": "Point",
        "coordinates": [
          -19.498306120274854,
          -23.957463879024747
        ]
      }
    },
    {
      "type": "Feature",
      "properties": {
        "norad_id": 30891,
        "name": "FENGYUN 1C DEB",
        "group": "fengyun-1c-debris",
        "lat": -36.047719247525635,
        "lon": 49.42456716954113,
        "alt_km": 917.8080220860138,
        "timestamp": "2025-12-21T14:40:48.195949+00:00",
        "meta_object_name": "FENGYUN 1C DEB",
        "meta_object_id": "1999-025AYD",
        "meta_epoch": "2025-12-19T09:58:48.614880",
        "meta_mean_motion": 14.05884099,
        "meta_eccentricity": 0.0055672,
        "meta_inclination": 98.7842,
        "meta_ra_of_asc_node": 40.8339,
        "meta_arg_of_pericenter": 168.9983,
        "meta_mean_anomaly": 207.0014,
        "meta_ephemeris_type": 0,
        "meta_classification_type": "U",
        "meta_norad_cat_id": 30891,
        "meta_element_set_no": 999,
        "meta_rev_at_epoch": 96076,
        "meta_bstar": 0.00069336,
        "meta_mean_motion_dot": 1.108e-05,
        "meta_mean_motion_ddot": 0,
        "tle_line1": "1 30891U 99025AYD 25353.41584045  .00001108  00000+0  69336-3 0  9994",
        "tle_line2": "2 30891  98.7842  40.8339 0055672 168.9983 207.0014 14.05884099960767"
      },
      "geometry": {
        "type": "Point",
        "coordinates": [
          49.42456716954113,
          -36.047719247525635
        ]
      }
    },
    {
      "type": "Feature",
      "properties": {
        "norad_id": 30892,
        "name": "FENGYUN 1C DEB",
        "group": "fengyun-1c-debris",
        "lat": -66.25524039661923,
        "lon": -37.63222099445795,
        "alt_km": 852.6878291284656,
        "timestamp": "2025-12-21T14:40:48.195961+00:00",
        "meta_object_name": "FENGYUN 1C DEB",
        "meta_object_id": "1999-025AYE",
        "meta_epoch": "2025-12-13T14:04:34.549536",
        "meta_mean_motion": 14.18924802,
        "meta_eccentricity": 0.00379168,
        "meta_inclination": 99.663,
        "meta_ra_of_asc_node": 290.842,
        "meta_arg_of_pericenter": 186.6804,
        "meta_mean_anomaly": 173.3868,
        "meta_ephemeris_type": 0,
        "meta_classification_type": "U",
        "meta_norad_cat_id": 30892,
        "meta_element_set_no": 999,
        "meta_rev_at_epoch": 64315,
        "meta_bstar": 0.00057005886,
        "meta_mean_motion_dot": 1.145e-05,
        "meta_mean_motion_ddot": 0,
        "tle_line1": "1 30892U 99025AYE 25347.58651099  .00001145  00000+0  57006-3 0  9992",
        "tle_line2": "2 30892  99.6630 290.8420 0037916 186.6804 173.3868 14.18924802643155"
      },
      "geometry": {
        "type": "Point",
        "coordinates": [
          -37.63222099445795,
          -66.25524039661923
        ]
      }
    }
  ]
}